PICO-02A021             
1 60538U 24149BY  26129.68729485  .00003750  00000+0  28396-3 0  9996
2 60538  97.6765 208.8625 0006341 137.9602 222.2111 15.02891315 93959
ICEYE-X43               
1 60539U 24149BZ  26129.79803549  .00001813  00000+0  15160-3 0  9996
2 60539  97.6771 207.2930 0004119 210.5158 149.5826 14.99735933 94362
HAWK-10A                
1 60540U 24149CA  26129.78826689  .00000584  00000+0  56584-4 0  9997
2 60540  97.6899 206.3614 0003231 175.9773 184.1475 14.96394492 94245
UMBRA-09                
1 60541U 24149CB  26129.82028719  .00009633  00000+0  49235-3 0  9999
2 60541  97.6958 216.4090 0001491 137.2940 222.8409 15.16886191 94900
QPS-SAR-8 (AMATERU-IV)  
1 60542U 24149CC  26129.80329957  .00003194  00000+0  23716-3 0  9998
2 60542  97.6667 209.2883 0002088 203.8282 156.2847 15.03748675 94502
ARCTIC WEATHER SATELLITE
1 60543U 24149CD  26129.80268979  .00000601  00000+0  68201-4 0  9994
2 60543  97.6808 201.3622 0001318 190.7250 169.3940 14.89791730 93587
CAPELLA-15 (ACADIA-5)   
1 60544U 24149CE  26129.77106187  .00000708  00000+0  74537-4 0  9990
2 60544  97.6779 203.6291 0003965 185.9250 174.1923 14.92415108 94120
HAWK-10B                
1 60545U 24149CF  26129.78812060  .00000577  00000+0  55940-4 0  9997
2 60545  97.6818 205.7551 0004534 207.5475 152.5507 14.96394802 94242
ICEYE-X39               
1 60546U 24149CG  26129.78068444  .00002151  00000+0  17912-3 0  9993
2 60546  97.6827 207.3243 0002051 179.2445 180.8781 14.99696809 94369
UMBRA-10                
1 60547U 24149CH  26129.81983988  .00009954  00000+0  50859-3 0  9992
2 60547  97.6963 216.4335 0002361 113.2738 246.8743 15.16886399 94918
ICEYE-X33               
1 60548U 24149CJ  26129.76828924  .00003529  00000+0  28188-3 0  9997
2 60548  97.7157 209.1480 0001059 346.5925  13.5270 15.00897835 94449
ICEYE-X40               
1 60549U 24149CK  26129.75736058  .00001846  00000+0  16199-3 0  9992
2 60549  97.6809 206.8726 0004631 183.6860 176.4328 14.97816593 94324
SATELIOT_1              
1 60550U 24149CL  26129.75132382  .00002469  00000+0  21448-3 0  9999
2 60550  97.6741 206.2918 0006553 188.5256 171.5856 14.97907958 94313
BRO-14                  
1 60551U 24149CM  26129.73908378  .00000497  00000+0  49294-4 0  9993
2 60551  97.6874 206.2078 0005900 215.9641 144.1184 14.96101376 94247
SATELIOT_3              
1 60552U 24149CN  26129.72674367  .00000931  00000+0  83947-4 0  9997
2 60552  97.6819 207.0249 0004450 200.8169 159.2872 14.97896720 94328
BRO-15                  
1 60553U 24149CP  26129.65366792  .00000076  00000+0  11870-4 0  9996
2 60553  97.6807 205.7622 0007269 207.8104 152.2730 14.96063918 94244
UM5-RIBAT               
1 60554U 24149CQ  26129.80604365  .00001898  00000+0  15394-3 0  9992
2 60554  97.6658 208.1239 0002974 122.3848 237.7664 15.00859871 94437
UM5-EOSAT               
1 60555U 24149CR  26129.78314490  .00001995  00000+0  15980-3 0  9996
2 60555  97.6651 209.0013 0006399 229.7050 130.3615 15.01264277 94450
LASARSAT                
1 62391U 24247Q   26129.37883650  .00026150  00000+0  56666-3 0  9995
2 62391  44.9740 119.8729 0004505  90.2978 269.8427 15.44007397 77313
CROCUBE                 
1 62394U 24247T   26129.35512813  .00025500  00000+0  52416-3 0  9993
2 62394  44.9720 117.9132 0004145  91.0663 269.0701 15.45574819 77339
TEVEL2-4                
1 63213U 25052D   26129.69298767  .00012689  00000+0  39678-3 0  9994
2 63213  97.3941  26.0540 0001174 182.4457 177.6780 15.33281084 64215
TEVEL2-5                
1 63214U 25052E   26129.64414968  .00013060  00000+0  41029-3 0  9990
2 63214  97.3940  25.9634 0001177 181.7304 178.3935 15.33125548 64204
TEVEL2-6                
1 63215U 25052F   26129.65554514  .00013258  00000+0  41695-3 0  9992
2 63215  97.3943  25.9596 0001228 191.1458 168.9757 15.33088188 64202
TEVEL2-1                
1 63217U 25052H   26129.67184705  .00012607  00000+0  40271-3 0  9993
2 63217  97.3914  25.6442 0000707 222.1920 137.9267 15.32601342 64191
TEVEL2-3                
1 63218U 25052J   26129.66776878  .00012767  00000+0  40718-3 0  9994
2 63218  97.3916  25.6576 0000673 222.0682 138.0508 15.32648307 64190
TEVEL2-2                
1 63219U 25052K   26129.67233917  .00012778  00000+0  40806-3 0  9998
2 63219  97.3917  25.6466 0000686 225.3644 134.7542 15.32607550 64194
TEVEL2-9                
1 63237U 25052AD  26129.66682437  .00011707  00000+0  39638-3 0  9994
2 63237  97.3981  25.0961 0004081 282.5598  77.5186 15.30735998 64133
TEVEL2-7                
1 63238U 25052AE  26129.70074178  .00010919  00000+0  37295-3 0  9998
2 63238  97.3979  25.0611 0004165 282.2952  77.7822 15.30471471 64139
TEVEL2-8                
1 63239U 25052AF  26129.64318294  .00011424  00000+0  39028-3 0  9990
2 63239  97.3981  24.9821 0004126 283.5672  76.5109 15.30451861 64129
HADES-ICM               
1 63492U 25052BN  26129.70564068  .00570308  12819-3  18595-2 0  9991
2 63492  97.3748  33.5239 0008182 165.6972 194.4534 15.90607553 64713
FORESAIL-1 PRIME        
1 66778U 25276DS  26129.44733301  .00003486  00000+0  17301-3 0  9996
2 66778  97.4205 203.4360 0001425 200.9720 159.1456 15.18347276 24521
