OBJECT_NAME,OBJECT_ID,EPOCH,MEAN_MOTION,ECCENTRICITY,INCLINATION,RA_OF_ASC_NODE,ARG_OF_PERICENTER,MEAN_ANOMALY,EPHEMERIS_TYPE,CLASSIFICATION_TYPE,NORAD_CAT_ID,ELEMENT_SET_NO,REV_AT_EPOCH,BSTAR,MEAN_MOTION_DOT,MEAN_MOTION_DDOT
PICO-02A021,2024-149BY,2026-05-09T16:29:42.275040,15.02891315,.0006341,97.6765,208.8625,137.9602,222.2111,0,U,60538,999,9395,.28396E-3,.375E-4,0
ICEYE-X43,2024-149BZ,2026-05-09T19:09:10.266336,14.99735933,.0004119,97.6771,207.2930,210.5158,149.5826,0,U,60539,999,9436,.1516E-3,.1813E-4,0
HAWK-10A,2024-149CA,2026-05-09T18:55:06.259296,14.96394492,.0003231,97.6899,206.3614,175.9773,184.1475,0,U,60540,999,9424,.56584E-4,.584E-5,0
UMBRA-09,2024-149CB,2026-05-09T19:41:12.813216,15.16886191,.0001491,97.6958,216.4090,137.2940,222.8409,0,U,60541,999,9490,.49235E-3,.9633E-4,0
QPS-SAR-8 (AMATERU-IV),2024-149CC,2026-05-09T19:16:45.082848,15.03748675,.0002088,97.6667,209.2883,203.8282,156.2847,0,U,60542,999,9450,.23716E-3,.3194E-4,0
ARCTIC WEATHER SATELLITE,2024-149CD,2026-05-09T19:15:52.397856,14.89791730,.0001318,97.6808,201.3622,190.7250,169.3940,0,U,60543,999,9358,.68201E-4,.601E-5,0
CAPELLA-15 (ACADIA-5),2024-149CE,2026-05-09T18:30:19.745568,14.92415108,.0003965,97.6779,203.6291,185.9250,174.1923,0,U,60544,999,9412,.74537E-4,.708E-5,0
HAWK-10B,2024-149CF,2026-05-09T18:54:53.619840,14.96394802,.0004534,97.6818,205.7551,207.5475,152.5507,0,U,60545,999,9424,.5594E-4,.577E-5,0
ICEYE-X39,2024-149CG,2026-05-09T18:44:11.135616,14.99696809,.0002051,97.6827,207.3243,179.2445,180.8781,0,U,60546,999,9436,.17912E-3,.2151E-4,0
UMBRA-10,2024-149CH,2026-05-09T19:40:34.165632,15.16886399,.0002361,97.6963,216.4335,113.2738,246.8743,0,U,60547,999,9491,.50859E-3,.9954E-4,0
ICEYE-X33,2024-149CJ,2026-05-09T18:26:20.190336,15.00897835,.0001059,97.7157,209.1480,346.5925,13.5270,0,U,60548,999,9444,.28188E-3,.3529E-4,0
ICEYE-X40,2024-149CK,2026-05-09T18:10:35.954112,14.97816593,.0004631,97.6809,206.8726,183.6860,176.4328,0,U,60549,999,9432,.16199E-3,.1846E-4,0
SATELIOT_1,2024-149CL,2026-05-09T18:01:54.378048,14.97907958,.0006553,97.6741,206.2918,188.5256,171.5856,0,U,60550,999,9431,.21448E-3,.2469E-4,0
BRO-14,2024-149CM,2026-05-09T17:44:16.838592,14.96101376,.00059,97.6874,206.2078,215.9641,144.1184,0,U,60551,999,9424,.49294E-4,.497E-5,0
SATELIOT_3,2024-149CN,2026-05-09T17:26:30.653088,14.97896720,.000445,97.6819,207.0249,200.8169,159.2872,0,U,60552,999,9432,.83947E-4,.931E-5,0
BRO-15,2024-149CP,2026-05-09T15:41:16.908288,14.96063918,.0007269,97.6807,205.7622,207.8104,152.2730,0,U,60553,999,9424,.1187E-4,.76E-6,0
UM5-RIBAT,2024-149CQ,2026-05-09T19:20:42.171360,15.00859871,.0002974,97.6658,208.1239,122.3848,237.7664,0,U,60554,999,9443,.15394E-3,.1898E-4,0
UM5-EOSAT,2024-149CR,2026-05-09T18:47:43.719360,15.01264277,.0006399,97.6651,209.0013,229.7050,130.3615,0,U,60555,999,9445,.1598E-3,.1995E-4,0
LASARSAT,2024-247Q,2026-05-09T09:05:31.473600,15.44007397,.0004505,44.9740,119.8729,90.2978,269.8427,0,U,62391,999,7731,.56666E-3,.2615E-3,0
CROCUBE,2024-247T,2026-05-09T08:31:23.070432,15.45574819,.0004145,44.9720,117.9132,91.0663,269.0701,0,U,62394,999,7733,.52416E-3,.255E-3,0
TEVEL2-4,2025-052D,2026-05-09T16:37:54.134688,15.33281084,.0001174,97.3941,26.0540,182.4457,177.6780,0,U,63213,999,6421,.39678E-3,.12689E-3,0
TEVEL2-5,2025-052E,2026-05-09T15:27:34.532352,15.33125548,.0001177,97.3940,25.9634,181.7304,178.3935,0,U,63214,999,6420,.41029E-3,.1306E-3,0
TEVEL2-6,2025-052F,2026-05-09T15:43:59.100096,15.33088188,.0001228,97.3943,25.9596,191.1458,168.9757,0,U,63215,999,6420,.41695E-3,.13258E-3,0
TEVEL2-1,2025-052H,2026-05-09T16:07:27.585120,15.32601342,.0000707,97.3914,25.6442,222.1920,137.9267,0,U,63217,999,6419,.40271E-3,.12607E-3,0
TEVEL2-3,2025-052J,2026-05-09T16:01:35.222592,15.32648307,.0000673,97.3916,25.6576,222.0682,138.0508,0,U,63218,999,6419,.40718E-3,.12767E-3,0
TEVEL2-2,2025-052K,2026-05-09T16:08:10.104288,15.32607550,.0000686,97.3917,25.6466,225.3644,134.7542,0,U,63219,999,6419,.40806E-3,.12778E-3,0
TEVEL2-9,2025-052AD,2026-05-09T16:00:13.625568,15.30735998,.0004081,97.3981,25.0961,282.5598,77.5186,0,U,63237,999,6413,.39638E-3,.11707E-3,0
TEVEL2-7,2025-052AE,2026-05-09T16:49:04.089792,15.30471471,.0004165,97.3979,25.0611,282.2952,77.7822,0,U,63238,999,6413,.37295E-3,.10919E-3,0
TEVEL2-8,2025-052AF,2026-05-09T15:26:11.006016,15.30451861,.0004126,97.3981,24.9821,283.5672,76.5109,0,U,63239,999,6412,.39028E-3,.11424E-3,0
HADES-ICM,2025-052BN,2026-05-09T16:56:07.354752,15.90607553,.0008182,97.3748,33.5239,165.6972,194.4534,0,U,63492,999,6471,.18595E-2,.570308E-2,.12819E-3
FORESAIL-1 PRIME,2025-276DS,2026-05-09T10:44:09.572064,15.18347276,.0001425,97.4205,203.4360,200.9720,159.1456,0,U,66778,999,2452,.17301E-3,.3486E-4,0
